start=new Date('2023-06-05T00:00:00.000Z').valueOf();
sats=[{"CLASSIFICATION_TYPE":"U","MEAN_ANOMALY":"268.8071","ARG_OF_PERICENTER":"91.3013","EPOCH":"2023-06-04T16:39:55.795392","SEMIMAJOR_AXIS":"6917.875","MEAN_MOTION":"15.08841696","OBJECT_ID":"2022-029AJ","MEAN_ELEMENT_THEORY":"SGP4","BSTAR":"0.00011173000000","ECCENTRICITY":"0.00008090","MEAN_MOTION_DDOT":"0.0000000000000","LAUNCH_DATE":"2022-03-19","MEAN_MOTION_DOT":"0.00001491","RCS_SIZE":"LARGE","EPHEMERIS_TYPE":"0","TLE_LINE1":"1 52120U 22029AJ  23155.69439578  .00001491  00000-0  11173-3 0  9993","TIME_SYSTEM":"UTC","APOAPSIS":"540.300","REF_FRAME":"TEME","RA_OF_ASC_NODE":"288.6768","DECAY_DATE":null,"INCLINATION":"53.2174","GP_ID":"233217583","TLE_LINE2":"2 52120  53.2174 288.6768 0000809  91.3013 268.8071 15.08841696 68478","OBJECT_NAME":"STARLINK-3534","FILE":"3925173","OBJECT_TYPE":"PAYLOAD","COUNTRY_CODE":"US","ELEMENT_SET_NO":"999","PERIAPSIS":"539.181","PERIOD":"95.437","REV_AT_EPOCH":"6847","NORAD_CAT_ID":"52120","CENTER_NAME":"EARTH","SITE":"AFETR"},{"REV_AT_EPOCH":"6860","NORAD_CAT_ID":"52121","PERIOD":"95.437","CENTER_NAME":"EARTH","SITE":"AFETR","GP_ID":"233217833","TLE_LINE2":"2 52121  53.2175 278.5083 0001021  74.1882 285.9223 15.08851235 68602","RA_OF_ASC_NODE":"278.5083","REF_FRAME":"TEME","DECAY_DATE":null,"INCLINATION":"53.2175","OBJECT_TYPE":"PAYLOAD","COUNTRY_CODE":"US","ELEMENT_SET_NO":"999","PERIAPSIS":"539.005","OBJECT_NAME":"STARLINK-3678","FILE":"3925173","MEAN_MOTION_DOT":"0.00003909","RCS_SIZE":"LARGE","EPHEMERIS_TYPE":"0","APOAPSIS":"540.417","TLE_LINE1":"1 52121U 22029AK  23155.73211300  .00003909  00000-0  26347-3 0  9995","TIME_SYSTEM":"UTC","OBJECT_ID":"2022-029AK","MEAN_ELEMENT_THEORY":"SGP4","CLASSIFICATION_TYPE":"U","MEAN_ANOMALY":"285.9223","ARG_OF_PERICENTER":"74.1882","SEMIMAJOR_AXIS":"6917.846","EPOCH":"2023-06-04T17:34:14.563200","MEAN_MOTION":"15.08851235","MEAN_MOTION_DDOT":"0.0000000000000","LAUNCH_DATE":"2022-03-19","BSTAR":"0.00026347000000","ECCENTRICITY":"0.00010210"},{"COUNTRY_CODE":"US","OBJECT_TYPE":"PAYLOAD","ELEMENT_SET_NO":"999","PERIAPSIS":"539.112","OBJECT_NAME":"STARLINK-3726","FILE":"3925173","GP_ID":"233218585","TLE_LINE2":"2 52122  53.2167 288.4132 0000889  86.6624 273.4470 15.08846079 68473","RA_OF_ASC_NODE":"288.4132","REF_FRAME":"TEME","DECAY_DATE":null,"INCLINATION":"53.2167","CENTER_NAME":"EARTH","SITE":"AFETR","REV_AT_EPOCH":"6847","NORAD_CAT_ID":"52122","PERIOD":"95.437","MEAN_MOTION_DDOT":"0.0000000000000","LAUNCH_DATE":"2022-03-19","BSTAR":"0.00019300000000","ECCENTRICITY":"0.00008890","OBJECT_ID":"2022-029AL","MEAN_ELEMENT_THEORY":"SGP4","CLASSIFICATION_TYPE":"U","MEAN_ANOMALY":"273.4470","ARG_OF_PERICENTER":"86.6624","EPOCH":"2023-06-04T18:04:42.895200","SEMIMAJOR_AXIS":"6917.862","MEAN_MOTION":"15.08846079","APOAPSIS":"540.342","TIME_SYSTEM":"UTC","TLE_LINE1":"1 52122U 22029AL  23155.75327425  .00002786  00000-0  19300-3 0  9997","MEAN_MOTION_DOT":"0.00002786","RCS_SIZE":"LARGE","EPHEMERIS_TYPE":"0"},{"APOAPSIS":"540.347","TIME_SYSTEM":"UTC","TLE_LINE1":"1 52123U 22029AM  23155.71834187  .00002613  00000-0  18216-3 0  9996","RCS_SIZE":"LARGE","MEAN_MOTION_DOT":"0.00002613","EPHEMERIS_TYPE":"0","LAUNCH_DATE":"2022-03-19","MEAN_MOTION_DDOT":"0.0000000000000","BSTAR":"0.00018216000000","ECCENTRICITY":"0.00008850","OBJECT_ID":"2022-029AM","MEAN_ELEMENT_THEORY":"SGP4","ARG_OF_PERICENTER":"100.9809","MEAN_ANOMALY":"259.1282","CLASSIFICATION_TYPE":"U","MEAN_MOTION":"15.08843450","SEMIMAJOR_AXIS":"6917.870","EPOCH":"2023-06-04T17:14:24.737568","CENTER_NAME":"EARTH","SITE":"AFETR","REV_AT_EPOCH":"6861","NORAD_CAT_ID":"52123","PERIOD":"95.437","COUNTRY_CODE":"US","OBJECT_TYPE":"PAYLOAD","PERIAPSIS":"539.123","ELEMENT_SET_NO":"999","OBJECT_NAME":"STARLINK-3725","FILE":"3925173","GP_ID":"233219336","TLE_LINE2":"2 52123  53.2171 278.5033 0000885 100.9809 259.1282 15.08843450 68618","DECAY_DATE":null,"REF_FRAME":"TEME","RA_OF_ASC_NODE":"278.5033","INCLINATION":"53.2171"},{"PERIOD":"95.437","NORAD_CAT_ID":"52124","REV_AT_EPOCH":"6848","SITE":"AFETR","CENTER_NAME":"EARTH","INCLINATION":"53.2162","DECAY_DATE":null,"REF_FRAME":"TEME","RA_OF_ASC_NODE":"288.1492","TLE_LINE2":"2 52124  53.2162 288.1492 0000687  94.9233 265.1838 15.08850748 68485","GP_ID":"233218084","FILE":"3925173","OBJECT_NAME":"STARLINK-3684","PERIAPSIS":"539.237","ELEMENT_SET_NO":"999","OBJECT_TYPE":"PAYLOAD","COUNTRY_CODE":"US","EPHEMERIS_TYPE":"0","RCS_SIZE":"LARGE","MEAN_MOTION_DOT":"0.00003868","TIME_SYSTEM":"UTC","TLE_LINE1":"1 52124U 22029AN  23155.81215206  .00003868  00000-0  26088-3 0  9992","APOAPSIS":"540.188","MEAN_MOTION":"15.08850748","EPOCH":"2023-06-04T19:29:29.937984","SEMIMAJOR_AXIS":"6917.848","ARG_OF_PERICENTER":"94.9233","CLASSIFICATION_TYPE":"U","MEAN_ANOMALY":"265.1838","MEAN_ELEMENT_THEORY":"SGP4","OBJECT_ID":"2022-029AN","BSTAR":"0.00026088000000","ECCENTRICITY":"0.00006870","LAUNCH_DATE":"2022-03-19","MEAN_MOTION_DDOT":"0.0000000000000"},{"SITE":"AFETR","CENTER_NAME":"EARTH","NORAD_CAT_ID":"52125","REV_AT_EPOCH":"6861","PERIOD":"95.437","ELEMENT_SET_NO":"999","PERIAPSIS":"539.158","COUNTRY_CODE":"US","OBJECT_TYPE":"PAYLOAD","FILE":"3925173","OBJECT_NAME":"STARLINK-3727","TLE_LINE2":"2 52125  53.2163 278.5601 0000834  95.3281 264.7806 15.08843565 68618","GP_ID":"233218334","INCLINATION":"53.2163","REF_FRAME":"TEME","RA_OF_ASC_NODE":"278.5601","DECAY_DATE":null,"APOAPSIS":"540.311","TIME_SYSTEM":"UTC","TLE_LINE1":"1 52125U 22029AP  23155.72107261  .00002293  00000-0  16208-3 0  9998","EPHEMERIS_TYPE":"0","MEAN_MOTION_DOT":"0.00002293","RCS_SIZE":"LARGE","MEAN_MOTION_DDOT":"0.0000000000000","LAUNCH_DATE":"2022-03-19","ECCENTRICITY":"0.00008340","BSTAR":"0.00016208000000","MEAN_ELEMENT_THEORY":"SGP4","OBJECT_ID":"2022-029AP","SEMIMAJOR_AXIS":"6917.869","EPOCH":"2023-06-04T17:18:20.673504","MEAN_MOTION":"15.08843565","CLASSIFICATION_TYPE":"U","MEAN_ANOMALY":"264.7806","ARG_OF_PERICENTER":"95.3281"},{"OBJECT_ID":"2022-029AQ","MEAN_ELEMENT_THEORY":"SGP4","ARG_OF_PERICENTER":"72.9324","CLASSIFICATION_TYPE":"U","MEAN_ANOMALY":"287.1758","MEAN_MOTION":"15.08847266","SEMIMAJOR_AXIS":"6917.858","EPOCH":"2023-06-04T17:28:56.923104","LAUNCH_DATE":"2022-03-19","MEAN_MOTION_DDOT":"0.0000000000000","ECCENTRICITY":"0.00008160","BSTAR":"0.00030297000000","RCS_SIZE":"LARGE","MEAN_MOTION_DOT":"0.00004538","EPHEMERIS_TYPE":"0","APOAPSIS":"540.288","TLE_LINE1":"1 52126U 22029AQ  23155.72843661  .00004538  00000-0  30297-3 0  9998","TIME_SYSTEM":"UTC","GP_ID":"233219086","TLE_LINE2":"2 52126  53.2167 278.5231 0000816  72.9324 287.1758 15.08847266 68607","DECAY_DATE":null,"REF_FRAME":"TEME","RA_OF_ASC_NODE":"278.5231","INCLINATION":"53.2167","OBJECT_TYPE":"PAYLOAD","COUNTRY_CODE":"US","PERIAPSIS":"539.159","ELEMENT_SET_NO":"999","OBJECT_NAME":"STARLINK-3732","FILE":"3925173","REV_AT_EPOCH":"6860","NORAD_CAT_ID":"52126","PERIOD":"95.437","CENTER_NAME":"EARTH","SITE":"AFETR"},{"EPOCH":"2023-06-04T15:37:40.010592","SEMIMAJOR_AXIS":"6917.875","MEAN_MOTION":"15.08841850","MEAN_ANOMALY":"264.4212","CLASSIFICATION_TYPE":"U","ARG_OF_PERICENTER":"95.6876","MEAN_ELEMENT_THEORY":"SGP4","OBJECT_ID":"2022-029AR","BSTAR":"0.00013986000000","ECCENTRICITY":"0.00008400","MEAN_MOTION_DDOT":"0.0000000000000","LAUNCH_DATE":"2022-03-19","EPHEMERIS_TYPE":"0","MEAN_MOTION_DOT":"0.00001939","RCS_SIZE":"LARGE","TIME_SYSTEM":"UTC","TLE_LINE1":"1 52127U 22029AR  23155.65115753  .00001939  00000-0  13986-3 0  9993","APOAPSIS":"540.321","INCLINATION":"53.2173","RA_OF_ASC_NODE":"278.8714","REF_FRAME":"TEME","DECAY_DATE":null,"TLE_LINE2":"2 52127  53.2173 278.8714 0000840  95.6876 264.4212 15.08841850 68599","GP_ID":"233218836","FILE":"3925173","OBJECT_NAME":"STARLINK-3715","ELEMENT_SET_NO":"999","PERIAPSIS":"539.159","COUNTRY_CODE":"US","OBJECT_TYPE":"PAYLOAD","PERIOD":"95.437","NORAD_CAT_ID":"52127","REV_AT_EPOCH":"6859","SITE":"AFETR","CENTER_NAME":"EARTH"},{"TIME_SYSTEM":"UTC","TLE_LINE1":"1 52129U 22029AT  23155.64380234  .00000793  00000-0  67913-4 0  9999","APOAPSIS":"540.340","RCS_SIZE":"LARGE","MEAN_MOTION_DOT":"0.00000793","EPHEMERIS_TYPE":"0","ECCENTRICITY":"0.00008270","BSTAR":"0.00006791300000","LAUNCH_DATE":"2022-03-19","MEAN_MOTION_DDOT":"0.0000000000000","ARG_OF_PERICENTER":"97.9561","CLASSIFICATION_TYPE":"U","MEAN_ANOMALY":"262.1525","MEAN_MOTION":"15.08832654","EPOCH":"2023-06-04T15:27:04.522176","SEMIMAJOR_AXIS":"6917.903","OBJECT_ID":"2022-029AT","MEAN_ELEMENT_THEORY":"SGP4","CENTER_NAME":"EARTH","SITE":"AFETR","PERIOD":"95.438","REV_AT_EPOCH":"6860","NORAD_CAT_ID":"52129","OBJECT_NAME":"STARLINK-3661","FILE":"3925173","COUNTRY_CODE":"US","OBJECT_TYPE":"PAYLOAD","PERIAPSIS":"539.196","ELEMENT_SET_NO":"999","DECAY_DATE":null,"RA_OF_ASC_NODE":"278.9068","REF_FRAME":"TEME","INCLINATION":"53.2168","GP_ID":"233217584","TLE_LINE2":"2 52129  53.2168 278.9068 0000827  97.9561 262.1525 15.08832654 68605"},{"TLE_LINE2":"2 52131  53.2173 278.3222 0000964  79.6595 280.4505 15.08839937 68620","GP_ID":"233217834","INCLINATION":"53.2173","DECAY_DATE":null,"RA_OF_ASC_NODE":"278.3222","REF_FRAME":"TEME","PERIAPSIS":"539.079","ELEMENT_SET_NO":"999","COUNTRY_CODE":"US","OBJECT_TYPE":"PAYLOAD","FILE":"3925173","OBJECT_NAME":"STARLINK-3711","NORAD_CAT_ID":"52131","REV_AT_EPOCH":"6862","PERIOD":"95.438","SITE":"AFETR","CENTER_NAME":"EARTH","MEAN_ELEMENT_THEORY":"SGP4","OBJECT_ID":"2022-029AV","MEAN_MOTION":"15.08839937","EPOCH":"2023-06-04T18:32:32.037792","SEMIMAJOR_AXIS":"6917.881","ARG_OF_PERICENTER":"79.6595","CLASSIFICATION_TYPE":"U","MEAN_ANOMALY":"280.4505","LAUNCH_DATE":"2022-03-19","MEAN_MOTION_DDOT":"0.0000000000000","ECCENTRICITY":"0.00009640","BSTAR":"0.00007615400000","EPHEMERIS_TYPE":"0","RCS_SIZE":"LARGE","MEAN_MOTION_DOT":"0.00000924","APOAPSIS":"540.412","TIME_SYSTEM":"UTC","TLE_LINE1":"1 52131U 22029AV  23155.77259303  .00000924  00000-0  76154-4 0  9991"}];
